[{"OBJECT_NAME":"TIANMU-1 07","OBJECT_ID":"2023-101A","EPOCH":"2026-03-06T13:47:20.454720","MEAN_MOTION":15.29118809,"ECCENTRICITY":0.00046097,"INCLINATION":97.2728,"RA_OF_ASC_NODE":118.5929,"ARG_OF_PERICENTER":142.4105,"MEAN_ANOMALY":217.7458,"EPHEMERIS_TYPE":0,"CLASSIFICATION_TYPE":"U","NORAD_CAT_ID":57399,"ELEMENT_SET_NO":999,"REV_AT_EPOCH":14596,"BSTAR":0.00029794732,"MEAN_MOTION_DOT":8.352e-5,"MEAN_MOTION_DDOT":0},{"OBJECT_NAME":"STARLINK-35355","OBJECT_ID":"2025-259AC","EPOCH":"2026-03-09T22:16:21.471456","MEAN_MOTION":15.27610332,"ECCENTRICITY":0.00015727,"INCLINATION":43.0007,"RA_OF_ASC_NODE":273.3462,"ARG_OF_PERICENTER":281.8072,"MEAN_ANOMALY":78.2603,"EPHEMERIS_TYPE":0,"CLASSIFICATION_TYPE":"U","NORAD_CAT_ID":66448,"ELEMENT_SET_NO":999,"REV_AT_EPOCH":1952,"BSTAR":0.0010805203,"MEAN_MOTION_DOT":0.00029619,"MEAN_MOTION_DDOT":0}]
